CCSDS_OEM_VERS = 2.0  
CREATION_DATE  = 2026-03-24T10:47:28
ORIGINATOR     = ESOC/OPS-GFA                            
 
 



META_START
OBJECT_NAME          = LISA                                    
OBJECT_ID            = -1000                                   
CENTER_NAME          = SUN                     
REF_FRAME            = EME2000 
TIME_SYSTEM          = TCB
START_TIME           = 2036-12-23T00:00:30.346418            
STOP_TIME            = 2047-09-07T01:42:34.894686            
INTERPOLATION        = HERMITE                                 
INTERPOLATION_DEGREE = 7                                       
META_STOP

2045-04-10T06:11:22.976813    -1.49083900700478554e+08    1.16792952285852712e+07    4.55246013183552679e+06   -2.36496424873844902e+00   -2.71708028238145580e+01   -1.20275181123624435e+01    5.90825120731063617e-06   -4.62909048913332011e-07   -1.80434795342256591e-07
2045-04-11T02:27:17.977850    -1.49240706765001446e+08    9.69588704196739942e+06    3.67454319950149395e+06   -1.93365237550190727e+00   -2.72017104851037637e+01   -1.20394138948334213e+01    5.91559281557272349e-06   -3.84378552010662179e-07   -1.45670114347911130e-07
2045-04-11T22:43:12.978887    -1.49366027999824673e+08    7.71043308635554090e+06    2.79585097219755128e+06   -1.50185054585379651e+00   -2.72268847904488567e+01   -1.20487717663445260e+01    5.92168254924332430e-06   -3.05736707955481754e-07   -1.10861336656264164e-07
2045-04-12T18:59:07.979924    -1.49459832002621502e+08    5.72335191755178943e+06    1.91656871278346330e+06   -1.06965017480058711e+00   -2.72463182284110275e+01   -1.20555887808109041e+01    5.92651813786883046e-06   -2.27000299196018466e-07   -7.60158945381483771e-08
2045-04-13T15:15:02.980962    -1.49522093068249792e+08    3.73506258795568347e+06    1.03688187620119564e+06   -6.37142832828343497e-01   -2.72600045136029685e+01   -1.20598625350738420e+01    5.93009759091694803e-06   -1.48186153819502577e-07   -4.11412392995193777e-08
2045-04-14T11:30:57.981999    -1.49552792184342593e+08    1.74598456179468334e+06    1.56976071999193169e+05   -2.04420225238218123e-01   -2.72679385898791082e+01   -1.20615911702268246e+01    5.93241920369009515e-06   -6.93111417290680051e-08   -6.24483956627718480e-09
2045-04-15T07:46:52.983036    -1.49551917022290349e+08   -2.43462368857827038e+05   -7.22962972775900736e+05    2.28425828785581153e-01   -2.72701166332463565e+01   -1.20607733728169162e+01    5.93348155874205533e-06    9.60782919428752135e-09    2.86658204190066739e-08
2045-04-16T04:02:47.984073    -1.49519461929243296e+08   -2.23285816914638504e+06   -1.60274945117044076e+06    6.61303417049076359e-01   -2.72665360544944555e+01   -1.20574083759223409e+01    5.93328352284994309e-06    8.85538169415255417e-08    6.35832424872957636e-08
2045-04-17T00:18:42.985110    -1.49455427926760852e+08   -4.22178264944913238e+06   -2.48219751524777338e+06    1.09412055483654047e+00   -2.72571955015449383e+01   -1.20514959601072231e+01    5.93182423949817570e-06    1.67509849237661302e-07    9.84999162202266356e-08
2045-04-17T20:34:37.986148    -1.49359822721736103e+08   -6.20981555821493641e+06   -3.36112131719534844e+06    1.52678520468696544e+00   -2.72420948615177281e+01   -1.20430364542543593e+01    5.92910311685515386e-06    2.46458927423138455e-07    1.33408320617260433e-07
2045-04-18T16:50:32.987185    -1.49232660735222727e+08   -8.19653668149162456e+06   -4.23933505346512981e+06    1.95920529513254760e+00   -2.72212352625144298e+01   -1.20320307362769761e+01    5.92511981136319354e-06    3.25384030337987401e-07    1.68300925745970388e-07
2045-04-19T13:06:27.988221    -1.49073963154792011e+08   -1.01815259510151036e+07   -5.11665301279718615e+06    2.39128873807278275e+00   -2.71946190751173233e+01   -1.20184802337103527e+01    5.91987420677407852e-06    4.04268118227758274e-07    2.03170194383256046e-07
2045-04-20T09:22:22.989258    -1.48883758016047776e+08   -1.21643635627292432e+07   -5.99288962897702493e+06    2.82294344445789847e+00   -2.71622499136031017e+01   -1.20023869241842593e+01    5.91336638867958601e-06    4.83094136667018529e-07    2.38008583645746863e-07
2045-04-21T05:34:07.727665    -1.48662894204712749e+08   -1.41378418129145429e+07   -6.86486039053707197e+06    3.25259940454200791e+00   -2.71242732118962557e+01   -1.19838215945487665e+01    5.90562605986750364e-06    5.61575017088319444e-07    2.72689243827217189e-07
2045-04-22T01:45:52.466072    -1.48410813946381181e+08   -1.61083516340208407e+07   -7.73538974457685370e+06    3.68164708039497413e+00   -2.70805938039718939e+01   -1.19627364306854123e+01    5.89663356195753908e-06    6.39964354132483880e-07    3.07324260325506314e-07
2045-04-22T21:57:37.204478    -1.48127564800448239e+08   -1.80754786890931129e+07   -8.60429462336483784e+06    4.10999547395810882e+00   -2.70312189591491361e+01   -1.19391350223734687e+01    5.88639004620836902e-06    7.18245263623262233e-07    3.41906169932764218e-07
2045-04-23T18:09:21.942884    -1.47813200884613991e+08   -2.00388091802586094e+07   -9.47139222460029460e+06    4.53755367890739425e+00   -2.69761571747755973e+01   -1.19130215021771733e+01    5.87489688902114650e-06    7.96400850080740581e-07    3.76427505366009916e-07
2045-04-24T14:21:06.681291    -1.47467782915264457e+08   -2.19979299667126089e+07   -1.03365000637652706e+07    4.96423089785934213e+00   -2.69154181767131071e+01   -1.18844005455899566e+01    5.86215571411903570e-06    8.74414215804318184e-07    4.10880799374392186e-07
2045-04-25T10:32:51.419697    -1.47091378223766923e+08   -2.39524286691016853e+07   -1.11994360203609373e+07    5.38993646102586510e+00   -2.68490129191988167e+01   -1.18532773708965493e+01    5.84816841034137095e-06    9.52268468969932390e-07    4.45258588392392689e-07
2045-04-26T06:44:36.158103    -1.46684060753634542e+08   -2.59018937632849738e+07   -1.20600183793670181e+07    5.81457984600378186e+00   -2.67769535841533965e+01   -1.18196577387859563e+01    5.83293714506109400e-06    1.02994673074434818e-06    4.79553415740205393e-07
2045-04-27T02:56:20.896510    -1.46245911043515950e+08   -2.78459146664348394e+07   -1.29180658692545705e+07    6.23807069838046147e+00   -2.66992535800077242e+01   -1.17835479517482344e+01    5.81646437321762856e-06    1.10743214141502920e-06    5.13757834370631859e-07
2045-04-27T23:08:05.634916    -1.45777016200965166e+08   -2.97840818184384592e+07   -1.37733976978824120e+07    6.66031885283711578e+00   -2.66159275401196496e+01   -1.17449548532880037e+01    5.79875284197671348e-06    1.18470786553767821e-06    5.47864409163468719e-07
2045-04-28T19:19:50.373322    -1.45277469871946633e+08   -3.17159867615620866e+07   -1.46258335876075998e+07    7.08123435443122062e+00   -2.65269913208523391e+01   -1.17038858269876602e+01    5.77980559099204443e-06    1.26175709609747691e-06    5.81865718765489019e-07
2045-04-29T15:31:35.111728    -1.44747372211031467e+08   -3.36412222213392109e+07   -1.54751938109401632e+07    7.50072747973964393e+00   -2.64324619993856516e+01   -1.16603487954532063e+01    5.75962594831293165e-06    1.33856305769122432e-06    6.15754356979449307e-07
2045-04-30T11:43:19.850135    -1.44186829857239544e+08   -3.55593821916443110e+07   -1.63212992280725073e+07    7.91870875754392411e+00   -2.63323578713321815e+01   -1.16143522191756734e+01    5.73821752189160625e-06    1.41510900872120099e-06    6.49522933697783685e-07
2045-05-01T07:55:04.588541    -1.43595955920483112e+08   -3.74700620269138440e+07   -1.71639713276137300e+07    8.33508898873921922e+00   -2.62266984482293388e+01   -1.15659050953410514e+01    5.71558418671510162e-06    1.49137824260813311e-06    6.83164075384456287e-07
2045-05-02T04:06:49.326947    -1.42974869983567178e+08   -3.93728585444755852e+07   -1.80030322718591578e+07    8.74977926514844384e+00   -2.61155044549791064e+01   -1.15150169566216949e+01    5.69173006754567131e-06    1.56735408801906515e-06    7.16670425102968109e-07
2045-05-03T00:18:34.065355    -1.42323698124701917e+08   -4.12673701399486363e+07   -1.88383049479256570e+07    9.16269098692317385e+00   -2.59987978273068876e+01   -1.14616978699821228e+01    5.66665951733096107e-06    1.64301990811572015e-06    7.50034642093256955e-07
2045-05-03T20:30:18.803761    -1.41642572965482503e+08   -4.31531969186745286e+07   -1.96696130260824896e+07    9.57373587821264849e+00   -2.58766017093110463e+01   -1.14059584355321899e+01    5.64037709110378212e-06    1.71835909880712118e-06    7.83249400889606752e-07
2045-05-04T16:40:49.967539    -1.40932367954141527e+08   -4.50280461936094910e+07   -2.04959460332803018e+07    9.98241305354803821e+00   -2.57490723892918432e+01   -1.13478698416606214e+01    5.61291656769530281e-06    1.79327950694636665e-06    8.16274080494509183e-07
2045-05-05T12:51:21.131318    -1.40192553745207816e+08   -4.68934355718754008e+07   -2.13179730367314592e+07    1.03890521594576626e+01   -2.56161144464911104e+01   -1.12873885268918137e+01    5.58425693242167936e-06    1.86784105006498858e-06    8.49135096089159632e-07
2045-05-06T09:01:52.295096    -1.39423281544260770e+08   -4.87489717521873787e+07   -2.21355206994845383e+07    1.07935663050012352e+01   -2.54777545382690818e+01   -1.12245266396108434e+01    5.55440378178813851e-06    1.94202741636039317e-06    8.81825255655215026e-07
2045-05-07T05:12:23.458876    -1.38624708808090329e+08   -5.05942633675720915e+07   -2.29484165658830665e+07    1.11958690137613761e+01   -2.53340205053150846e+01   -1.11592968499089178e+01    5.52336293747087159e-06    2.01582233557201412e-06    9.14337386447870008e-07
2045-05-08T01:22:54.622654    -1.37796999253493011e+08   -5.24289211093236282e+07   -2.37564891164258048e+07    1.15958742409382545e+01   -2.51849413681031926e+01   -1.10917123479477642e+01    5.49114046590540068e-06    2.08920959314393357e-06    9.46664341328927039e-07
